[Satellite]
VERSION=1.1
NAME=HOPE-1 (HO-68)
NICKNAME=HO-68
TLE1=1 36122U 09072B   15055.52668036 -.00000060  00000-0 -43517-4 0  9996
TLE2=2 36122 100.2120 104.2780 0007404  22.8892 337.2560 13.16324230249635
